NORAD_CAT_ID,OBJECT_NAME,OBJECT_TYPE,EPOCH,MEAN_MOTION,ECCENTRICITY,INCLINATION,RA_OF_ASC_NODE,ARG_OF_PERICENTER,MEAN_ANOMALY,BSTAR,MEAN_MOTION_DOT,MEAN_MOTION_DDOT,TLE_LINE0,TLE_LINE1,TLE_LINE2,SEMIMAJOR_AXIS,PERIOD,APOGEE,PERIGEE,DECAYED
53261.0,STARLINK-4062,PAYLOAD,2023-11-09 13:12:40,15.08855382,0.0001458,53.2162,55.0355,86.2897,273.8262,0.0010527,0.00016512,0.0,0 STARLINK-4062,1 53261U 22086V   23313.55047361  .00016512  00000-0  10527-2 0  9990,2 53261  53.2162  55.0355 0001458  86.2897 273.8262 15.08855382 72575,6917.833,95.437,540.707,538.69,0.0
53261.0,STARLINK-4062,PAYLOAD,2023-11-10 00:20:22,15.08854303,0.0001522,53.2163,52.9549,81.7898,278.3266,0.00068188,0.00010585,0.0,0 STARLINK-4062,1 53261U 22086V   23314.01415144  .00010585  00000-0  68188-3 0  9991,2 53261  53.2163  52.9549 0001522  81.7898 278.3266 15.08854303 72464,6917.837,95.437,540.755,538.649,0.0
53261.0,STARLINK-4062,PAYLOAD,2023-11-10 13:03:27,15.08852844,0.0001466,53.2171,50.5728,102.9776,257.138,0.00015117,2.12e-05,0.0,0 STARLINK-4062,1 53261U 22086V   23314.54406789  .00002120  00000-0  15117-3 0  9994,2 53261  53.2171  50.5728 0001466 102.9776 257.1380 15.08852844 72723,6917.841,95.437,540.72,538.692,0.0
53261.0,STARLINK-4062,PAYLOAD,2023-11-11 11:18:51,15.08843936,0.0001401,53.217,46.4095,104.5024,255.6124,0.00011616,1.561e-05,0.0,0 STARLINK-4062,1 53261U 22086V   23315.47143071  .00001561  00000-0  11616-3 0  9997,2 53261  53.2170  46.4095 0001401 104.5024 255.6124 15.08843936 72682,6917.868,95.437,540.703,538.764,0.0
53261.0,STARLINK-4062,PAYLOAD,2023-11-11 16:05:00,15.08848416,0.0001383,53.2171,45.5167,106.9534,253.161,6.232e-05,7.04e-06,0.0,0 STARLINK-4062,1 53261U 22086V   23315.67014699  .00000704  00000-0  62320-4 0  9999,2 53261  53.2171  45.5167 0001383 106.9534 253.1610 15.08848416 72898,6917.855,95.437,540.676,538.763,0.0
53261.0,STARLINK-4062,PAYLOAD,2023-11-12 11:09:38,15.08840284,0.0001393,53.2177,41.948,103.2923,256.8225,7.3946e-05,8.89e-06,0.0,0 STARLINK-4062,1 53261U 22086V   23316.46503200  .00000889  00000-0  73946-4 0  9998,2 53261  53.2177  41.9480 0001393 103.2923 256.8225 15.08840284 72836,6917.88,95.438,540.708,538.781,0.0
53261.0,STARLINK-4062,PAYLOAD,2023-11-12 12:45:01,15.08844711,0.0001267,53.2176,41.6534,88.8295,271.2842,7.5925e-05,9.21e-06,0.0,0 STARLINK-4062,1 53261U 22086V   23316.53127041  .00000921  00000-0  75925-4 0  9997,2 53261  53.2176  41.6534 0001267  88.8295 271.2842 15.08844711 73029,6917.866,95.437,540.607,538.854,0.0
53261.0,STARLINK-4062,PAYLOAD,2023-11-12 22:17:20,15.08844591,0.000128,53.218,39.8688,87.6737,272.4401,5.8987e-05,6.51e-06,0.0,0 STARLINK-4062,1 53261U 22086V   23316.92870880  .00000651  00000-0  58987-4 0  9995,2 53261  53.2180  39.8688 0001280  87.6737 272.4401 15.08844591 73082,6917.866,95.437,540.617,538.846,0.0
53261.0,STARLINK-4062,PAYLOAD,2023-11-13 12:35:48,15.08855917,0.0001382,53.2184,37.1948,82.2589,277.856,0.00029827,4.464e-05,0.0,0 STARLINK-4062,1 53261U 22086V   23317.52486408  .00004464  00000-0  29827-3 0  9997,2 53261  53.2184  37.1948 0001382  82.2589 277.8560 15.08855917 72993,6917.832,95.437,540.653,538.741,0.0
53261.0,STARLINK-4062,PAYLOAD,2023-11-13 22:08:07,15.08843088,0.0001435,53.2182,35.4094,86.9076,273.208,7.5888e-05,9.2e-06,0.0,0 STARLINK-4062,1 53261U 22086V   23317.92230895  .00000920  00000-0  75888-4 0  9990,2 53261  53.2182  35.4094 0001435  86.9076 273.2080 15.08843088 73236,6917.871,95.437,540.729,538.743,0.0
53261.0,STARLINK-4062,PAYLOAD,2023-11-14 12:26:36,15.08837086,0.0001666,53.2187,32.7371,107.4346,252.6828,-6.1096e-05,-1.26e-05,0.0,0 STARLINK-4062,1 53261U 22086V   23318.51847384 -.00001260  00000-0 -61096-4 0  9999,2 53261  53.2187  32.7371 0001666 107.4346 252.6828 15.08837086 73146,6917.889,95.438,540.907,538.602,0.0
53261.0,STARLINK-4062,PAYLOAD,2023-11-14 14:01:59,15.08842944,0.000133,53.2181,32.4358,94.2456,265.8688,8.636e-05,1.087e-05,0.0,0 STARLINK-4062,1 53261U 22086V   23318.58471083  .00001087  00000-0  86360-4 0  9991,2 53261  53.2181  32.4358 0001330  94.2456 265.8688 15.08842944 73335,6917.871,95.437,540.656,538.816,0.0
53261.0,STARLINK-4062,PAYLOAD,2023-11-14 21:58:54,15.08842121,0.0001291,53.218,30.9492,91.1026,269.0114,6.333e-05,7.2e-06,0.0,0 STARLINK-4062,1 53261U 22086V   23318.91591113  .00000720  00000-0  63330-4 0  9990,2 53261  53.2180  30.9492 0001291  91.1026 269.0114 15.08842121 73383,6917.874,95.437,540.632,538.846,0.0
53261.0,STARLINK-4062,PAYLOAD,2023-11-15 12:17:23,15.08839416,0.0001675,53.2192,28.2736,92.2715,267.8469,-9.7185e-06,-4.43e-06,0.0,0 STARLINK-4062,1 53261U 22086V   23319.51207464 -.00000443  00000-0 -97185-5 0  9990,2 53261  53.2192  28.2736 0001675  92.2715 267.8469 15.08839416 73472,6917.882,95.438,540.906,538.588,0.0
53261.0,STARLINK-4062,PAYLOAD,2023-11-16 08:57:24,15.08838244,0.0001567,53.2186,24.408,92.5565,267.5607,0.00017359,2.476e-05,0.0,0 STARLINK-4062,1 53261U 22086V   23320.37319709  .00002476  00000-0  17359-3 0  9991,2 53261  53.2186  24.4080 0001567  92.5565 267.5607 15.08838244 73605,6917.886,95.438,540.835,538.667,0.0
53261.0,STARLINK-4062,PAYLOAD,2023-11-16 21:40:28,15.08846184,0.0001439,53.2186,22.0285,91.1305,268.9852,8.0656e-05,9.96e-06,0.0,0 STARLINK-4062,1 53261U 22086V   23320.90311276  .00000996  00000-0  80656-4 0  9997,2 53261  53.2186  22.0285 0001439  91.1305 268.9852 15.08846184 73688,6917.861,95.437,540.722,538.731,0.0
53261.0,STARLINK-4062,PAYLOAD,2023-11-17 10:23:34,15.08842367,0.0001419,53.2188,19.6501,94.0252,266.0903,0.00010912,1.449e-05,0.0,0 STARLINK-4062,1 53261U 22086V   23321.43303544  .00001449  00000-0  10912-3 0  9996,2 53261  53.2188  19.6501 0001419  94.0252 266.0903 15.08842367 73588,6917.873,95.437,540.72,538.757,0.0
53261.0,STARLINK-4062,PAYLOAD,2023-11-17 21:31:16,15.08841805,0.0001283,53.2174,17.5681,95.7039,264.41,1.1481e-05,-1.05e-06,0.0,0 STARLINK-4062,1 53261U 22086V   23321.89671590 -.00000105  00000-0  11481-4 0  9997,2 53261  53.2174  17.5681 0001283  95.7039 264.4100 15.08841805 73834,6917.875,95.437,540.627,538.852,0.0
53261.0,STARLINK-4062,PAYLOAD,2023-11-18 10:14:21,15.08839449,0.0001638,53.2189,15.1888,91.6553,268.4626,5.4752e-05,5.83e-06,0.0,0 STARLINK-4062,1 53261U 22086V   23322.42663894  .00000583  00000-0  54752-4 0  9992,2 53261  53.2189  15.1888 0001638  91.6553 268.4626 15.08839449 73730,6917.882,95.438,540.88,538.614,0.0
53261.0,STARLINK-4062,PAYLOAD,2023-11-19 10:05:08,15.08847015,0.0001539,53.2188,10.7291,93.9032,266.2136,0.00011393,1.526e-05,0.0,0 STARLINK-4062,1 53261U 22086V   23323.42023181  .00001526  00000-0  11393-3 0  9993,2 53261  53.2188  10.7291 0001539  93.9032 266.2136 15.08847015 73881,6917.859,95.437,540.789,538.659,0.0
53261.0,STARLINK-4062,PAYLOAD,2023-11-20 03:34:23,15.08836948,0.0001593,53.2189,7.4584,86.3832,273.7342,5.8331e-05,6.4e-06,0.0,0 STARLINK-4062,1 53261U 22086V   23324.14887900  .00000640  00000-0  58331-4 0  9990,2 53261  53.2189   7.4584 0001593  86.3832 273.7342 15.08836948 73991,6917.89,95.438,540.857,538.653,0.0
53261.0,STARLINK-4062,PAYLOAD,2023-11-20 09:55:55,15.08844495,0.0001555,53.2185,6.2668,88.8601,271.2569,0.0001179,1.589e-05,0.0,0 STARLINK-4062,1 53261U 22086V   23324.41383300  .00001589  00000-0  11790-3 0  9995,2 53261  53.2185   6.2668 0001555  88.8601 271.2569 15.08844495 74032,6917.867,95.437,540.807,538.656,0.0
53261.0,STARLINK-4062,PAYLOAD,2023-11-20 11:31:17,15.08863221,0.0001484,53.2186,5.9696,79.9169,280.199,-0.00014653,-2.621e-05,0.0,0 STARLINK-4062,1 53261U 22086V   23324.48006806 -.00002621  00000-0 -14653-3 0  9996,2 53261  53.2186   5.9696 0001484  79.9169 280.1990 15.08863221 74227,6917.809,95.436,540.701,538.648,0.0
53261.0,STARLINK-4062,PAYLOAD,2023-11-20 19:28:14,15.08841143,0.0001434,53.2181,4.4826,85.7391,274.3765,5.4082e-05,5.73e-06,0.0,0 STARLINK-4062,1 53261U 22086V   23324.81127637  .00000573  00000-0  54082-4 0  9992,2 53261  53.2181   4.4826 0001434  85.7391 274.3765 15.08841143 74277,6917.877,95.437,540.734,538.75,0.0
53261.0,STARLINK-4062,PAYLOAD,2023-11-21 03:25:10,15.08838555,0.0001531,53.2177,2.9975,92.1834,267.9333,5.4436e-06,-2.01e-06,0.0,0 STARLINK-4062,1 53261U 22086V   23325.14247907 -.00000201  00000-0  54436-5 0  9995,2 53261  53.2177   2.9975 0001531  92.1834 267.9333 15.08838555 74140,6917.885,95.438,540.809,538.691,0.0
53261.0,STARLINK-4062,PAYLOAD,2023-11-21 09:46:42,15.08846551,0.0001509,53.2181,1.8085,92.0466,268.0699,5.8475e-05,6.43e-06,0.0,0 STARLINK-4062,1 53261U 22086V   23325.40743255  .00000643  00000-0  58475-4 0  9996,2 53261  53.2181   1.8085 0001509  92.0466 268.0699 15.08846551 74186,6917.86,95.437,540.769,538.681,0.0
53261.0,STARLINK-4062,PAYLOAD,2023-11-22 00:05:10,15.08840059,0.0001456,53.2176,359.1317,98.8936,261.2221,5.1049e-05,5.25e-06,0.0,0 STARLINK-4062,1 53261U 22086V   23326.00359760  .00000525  00000-0  51049-4 0  9996,2 53261  53.2176 359.1317 0001456  98.8936 261.2221 15.08840059 74277,6917.88,95.438,540.752,538.738,0.0
53261.0,STARLINK-4062,PAYLOAD,2023-11-22 11:12:52,15.08848709,0.000147,53.218,357.0522,101.4065,258.7093,0.00013518,1.865e-05,0.0,0 STARLINK-4062,1 53261U 22086V   23326.46727003  .00001865  00000-0  13518-3 0  9991,2 53261  53.2180 357.0522 0001470 101.4065 258.7093 15.08848709 74343,6917.854,95.437,540.736,538.702,0.0
53261.0,STARLINK-4062,PAYLOAD,2023-11-22 20:45:11,15.08838033,0.0001793,53.2178,355.2657,109.9098,250.2087,6.2783e-05,7.11e-06,0.0,0 STARLINK-4062,1 53261U 22086V   23326.86471812  .00000711  00000-0  62783-4 0  9997,2 53261  53.2178 355.2657 0001793 109.9098 250.2087 15.08838033 74581,6917.886,95.438,540.992,538.511,0.0
53261.0,STARLINK-4062,PAYLOAD,2023-11-23 09:28:16,15.0884009,0.0001516,53.2174,352.8865,95.572,264.5445,4.0582e-05,3.58e-06,0.0,0 STARLINK-4062,1 53261U 22086V   23327.39463967  .00000358  00000-0  40582-4 0  9998,2 53261  53.2174 352.8865 0001516  95.5720 264.5445 15.08840090 74667,6917.88,95.438,540.794,538.696,0.0
